
# Worst residual: 26.92 km
# MJD 60838.000000 (2025 Jun 12  0:00)
2000-045A = NORAD 26463 = Cluster II-FM5 Rumba
1 26463U 00045A   25163.49919926  .00000000  00000-0  00000-0 0 26164
2 26463 151.9449 075.8601 9076383 294.6119 051.2910 00.42918300    06

# Worst residual: 3.10 km
# MJD 60839.000000 (2025 Jun 13  0:00)
2000-045A = NORAD 26463 = Cluster II-FM5 Rumba
1 26463U 00045A   25164.49919926  .00000000  00000-0  00000-0 0 26165
2 26463 151.9267 075.9946 9080490 294.7572 205.7483 00.42914922    02

# Worst residual: 12.94 km
# MJD 60840.000000 (2025 Jun 14  0:00)
2000-045A = NORAD 26463 = Cluster II-FM5 Rumba
1 26463U 00045A   25165.49919926  .00000000  00000-0  00000-0 0 26166
2 26463 151.8776 076.2094 9078618 294.9766 000.2160 00.42936183    03

# Worst residual: 4.55 km
# MJD 60841.000000 (2025 Jun 15  0:00)
2000-045A = NORAD 26463 = Cluster II-FM5 Rumba
1 26463U 00045A   25166.49919926  .00000000  00000-0  00000-0 0 26167
2 26463 151.8455 076.4849 9081414 295.2548 154.6825 00.42908371    07

# Worst residual: 15.35 km
# MJD 60842.000000 (2025 Jun 16  0:00)
2000-045A = NORAD 26463 = Cluster II-FM5 Rumba
1 26463U 00045A   25167.49919926  .00000000  00000-0  00000-0 0 26168
2 26463 151.7899 076.7252 9080053 295.4870 309.1687 00.42898376    03

# Worst residual: 10.05 km
# MJD 60843.000000 (2025 Jun 17  0:00)
2000-045A = NORAD 26463 = Cluster II-FM5 Rumba
1 26463U 00045A   25168.49919926  .00000000  00000-0  00000-0 0 26169
2 26463 151.7435 077.0497 9081772 295.8198 103.6112 00.42901720    08

# Worst residual: 5.81 km
# MJD 60844.000000 (2025 Jun 18  0:00)
2000-045A = NORAD 26463 = Cluster II-FM5 Rumba
1 26463U 00045A   25169.49919926  .00000000  00000-0  00000-0 0 26160
2 26463 151.7067 077.2474 9083329 296.0200 258.0958 00.42904640    00

# Worst residual: 15.71 km
# MJD 60845.000000 (2025 Jun 19  0:00)
2000-045A = NORAD 26463 = Cluster II-FM5 Rumba
1 26463U 00045A   25170.49919926  .00000000  00000-0  00000-0 0 26162
2 26463 151.6478 077.5147 9082574 296.3010 052.5609 00.42912333    06

# Worst residual: 3.79 km
# MJD 60846.000000 (2025 Jun 20  0:00)
2000-045A = NORAD 26463 = Cluster II-FM5 Rumba
1 26463U 00045A   25171.49919926  .00000000  00000-0  00000-0 0 26163
2 26463 151.6159 077.7252 9086065 296.5066 207.0190 00.42913160    04

# Worst residual: 15.23 km
# MJD 60847.000000 (2025 Jun 21  0:00)
2000-045A = NORAD 26463 = Cluster II-FM5 Rumba
1 26463U 00045A   25172.49919926  .00000000  00000-0  00000-0 0 26164
2 26463 151.5615 077.9502 9082794 296.7407 001.4683 00.42964953    05

# Worst residual: 3.64 km
# MJD 60848.000000 (2025 Jun 22  0:00)
2000-045A = NORAD 26463 = Cluster II-FM5 Rumba
1 26463U 00045A   25173.49919926  .00000000  00000-0  00000-0 0 26165
2 26463 151.5299 078.1654 9085866 296.9692 155.9204 00.42915281    09

# Worst residual: 25.70 km
# MJD 60849.000000 (2025 Jun 23  0:00)
2000-045A = NORAD 26463 = Cluster II-FM5 Rumba
1 26463U 00045A   25174.49919926  .00000000  00000-0  00000-0 0 26166
2 26463 151.4798 078.3802 9082212 297.1909 310.2987 00.42924949    00

# Worst residual: 7.32 km
# MJD 60850.000000 (2025 Jun 24  0:00)
2000-045A = NORAD 26463 = Cluster II-FM5 Rumba
1 26463U 00045A   25175.49919926  .00000000  00000-0  00000-0 0 26167
2 26463 151.4394 078.6482 9083935 297.4857 104.7726 00.42910395    04

# Worst residual: 10.36 km
# MJD 60851.000000 (2025 Jun 25  0:00)
2000-045A = NORAD 26463 = Cluster II-FM5 Rumba
1 26463U 00045A   25176.49919926  .00000000  00000-0  00000-0 0 26168
2 26463 151.4178 078.7659 9085506 297.6338 259.1453 00.42913987    05

# Worst residual: 24.28 km
# MJD 60852.000000 (2025 Jun 26  0:00)
2000-045A = NORAD 26463 = Cluster II-FM5 Rumba
1 26463U 00045A   25177.49919926  .00000000  00000-0  00000-0 0 26169
2 26463 151.3712 079.0138 9084336 297.8970 053.6033 00.42908692    06

# Worst residual: 6.38 km
# MJD 60853.000000 (2025 Jun 27  0:00)
2000-045A = NORAD 26463 = Cluster II-FM5 Rumba
1 26463U 00045A   25178.49919926  .00000000  00000-0  00000-0 0 26160
2 26463 151.3535 079.1391 9088100 298.0385 208.0106 00.42906434    06

# Worst residual: 15.19 km
# MJD 60854.000000 (2025 Jun 28  0:00)
2000-045A = NORAD 26463 = Cluster II-FM5 Rumba
1 26463U 00045A   25179.49919926  .00000000  00000-0  00000-0 0 26161
2 26463 151.3182 079.2992 9086702 298.2116 002.4521 00.42921074    06

# Worst residual: 7.38 km
# MJD 60855.000000 (2025 Jun 29  0:00)
2000-045A = NORAD 26463 = Cluster II-FM5 Rumba
1 26463U 00045A   25180.49919926  .00000000  00000-0  00000-0 0 26163
2 26463 151.2950 079.4753 9089409 298.3988 156.9007 00.42903867    04

# Worst residual: 12.07 km
# MJD 60856.000000 (2025 Jun 30  0:00)
2000-045A = NORAD 26463 = Cluster II-FM5 Rumba
1 26463U 00045A   25181.49919926  .00000000  00000-0  00000-0 0 26164
2 26463 151.2758 079.5687 9087521 298.5020 311.3549 00.42892331    00

# Worst residual: 8.35 km
# MJD 60857.000000 (2025 Jul  1  0:00)
2000-045A = NORAD 26463 = Cluster II-FM5 Rumba
1 26463U 00045A   25182.49919926  .00000000  00000-0  00000-0 0 26165
2 26463 151.2403 079.7914 9088782 298.7450 105.8001 00.42904221    02

# Worst residual: 6.65 km
# MJD 60858.000000 (2025 Jul  2  0:00)
2000-045A = NORAD 26463 = Cluster II-FM5 Rumba
1 26463U 00045A   25183.49919926  .00000000  00000-0  00000-0 0 26166
2 26463 151.2468 079.7934 9087928 298.7777 260.2472 00.42899485    01

# Worst residual: 16.19 km
# MJD 60859.000000 (2025 Jul  3  0:00)
2000-045A = NORAD 26463 = Cluster II-FM5 Rumba
1 26463U 00045A   25184.49919926  .00000000  00000-0  00000-0 0 26167
2 26463 151.1903 080.0367 9086956 299.0407 054.7000 00.42912836    02

# Worst residual: 4.37 km
# MJD 60860.000000 (2025 Jul  4  0:00)
2000-045A = NORAD 26463 = Cluster II-FM5 Rumba
1 26463U 00045A   25185.49919926  .00000000  00000-0  00000-0 0 26168
2 26463 151.1714 080.1482 9088847 299.1717 209.1173 00.42906441    09

# Worst residual: 12.49 km
# MJD 60861.000000 (2025 Jul  5  0:00)
2000-045A = NORAD 26463 = Cluster II-FM5 Rumba
1 26463U 00045A   25186.49919926  .00000000  00000-0  00000-0 0 26169
2 26463 151.1188 080.3533 9086715 299.3940 003.5510 00.42952759    09

# Worst residual: 5.83 km
# MJD 60862.000000 (2025 Jul  6  0:00)
2000-045A = NORAD 26463 = Cluster II-FM5 Rumba
1 26463U 00045A   25187.49919926  .00000000  00000-0  00000-0 0 26160
2 26463 151.0879 080.5400 9089879 299.5975 157.9823 00.42909065    07

# Worst residual: 17.26 km
# MJD 60863.000000 (2025 Jul  7  0:00)
2000-045A = NORAD 26463 = Cluster II-FM5 Rumba
1 26463U 00045A   25188.49919926  .00000000  00000-0  00000-0 0 26161
2 26463 151.0489 080.7024 9088834 299.7746 312.3910 00.42919604    00

# Worst residual: 7.54 km
# MJD 60864.000000 (2025 Jul  8  0:00)
2000-045A = NORAD 26463 = Cluster II-FM5 Rumba
1 26463U 00045A   25189.49919926  .00000000  00000-0  00000-0 0 26162
2 26463 151.0076 080.9399 9090847 300.0337 106.8561 00.42906563    06
